{"type": "FeatureCollection", "features": [ {"type": "Feature", "properties": {"norad_id": 34375, "name": "IRIDIUM 33 DEB", "group": "iridium-33-debris", "lat": 83.64981423450138, "lon": -147.93422246587465, "alt_km": 750.1851663819734, "timestamp": "2025-12-24T11:33:00.402716+00:00", "meta": {"OBJECT_NAME": "IRIDIUM 33 DEB", "OBJECT_ID": "1997-051FT", "EPOCH": "2025-12-23T23:53:27.636000", "MEAN_MOTION": 14.18011996, "ECCENTRICITY": 0.0103696, "INCLINATION": 86.4323, "RA_OF_ASC_NODE": 178.164, "ARG_OF_PERICENTER": 91.5399, "MEAN_ANOMALY": 34.9546, "EPHEMERIS_TYPE": 0, "CLASSIFICATION_TYPE": "U", "NORAD_CAT_ID": 34375, "ELEMENT_SET_NO": 999, "REV_AT_EPOCH": 86871, "BSTAR": 0.00038612, "MEAN_MOTION_DOT": 8.53e-06, "MEAN_MOTION_DDOT": 0}, "tle": {"line1": "1 34375U 97051FT  25357.99545875  .00000853  00000+0  38612-3 0  9996", "line2": "2 34375  86.4323 178.1640 0103696  91.5399  34.9546 14.18011996868719"}}, "geometry": {"type": "Point", "coordinates": [-147.93422246587465, 83.64981423450138]}}, {"type": "Feature", "properties": {"norad_id": 34376, "name": "IRIDIUM 33 DEB", "group": "iridium-33-debris", "lat": -1.8907090919413607, "lon": -178.61734154192328, "alt_km": 675.8236884089083, "timestamp": "2025-12-24T11:33:00.402727+00:00", "meta": {"OBJECT_NAME": "IRIDIUM 33 DEB", "OBJECT_ID": "1997-051FU", "EPOCH": "2025-12-24T00:52:22.525248", "MEAN_MOTION": 14.62714709, "ECCENTRICITY": 0.0028375, "INCLINATION": 86.2981, "RA_OF_ASC_NODE": 1.4602, "ARG_OF_PERICENTER": 129.6152, "MEAN_ANOMALY": 230.7571, "EPHEMERIS_TYPE": 0, "CLASSIFICATION_TYPE": "U", "NORAD_CAT_ID": 34376, "ELEMENT_SET_NO": 999, "REV_AT_EPOCH": 88172, "BSTAR": 0.0014768, "MEAN_MOTION_DOT": 7.587e-05, "MEAN_MOTION_DDOT": 0}, "tle": {"line1": "1 34376U 97051FU  25358.03637182  .00007587  00000+0  14768-2 0  9992", "line2": "2 34376  86.2981   1.4602 0028375 129.6152 230.7571 14.62714709881725"}}, "geometry": {"type": "Point", "coordinates": [-178.61734154192328, -1.8907090919413607]}}, {"type": "Feature", "properties": {"norad_id": 34486, "name": "IRIDIUM 33 DEB", "group": "iridium-33-debris", "lat": 7.8239704435988315, "lon": 7.0991585403185065, "alt_km": 577.1575656487921, "timestamp": "2025-12-24T11:33:00.402738+00:00", "meta": {"OBJECT_NAME": "IRIDIUM 33 DEB", "OBJECT_ID": "1997-051GB", "EPOCH": "2025-12-24T00:31:38.958816", "MEAN_MOTION": 14.96285435, "ECCENTRICITY": 0.0013923, "INCLINATION": 86.3926, "RA_OF_ASC_NODE": 6.8146, "ARG_OF_PERICENTER": 80.2681, "MEAN_ANOMALY": 335.5299, "EPHEMERIS_TYPE": 0, "CLASSIFICATION_TYPE": "U", "NORAD_CAT_ID": 34486, "ELEMENT_SET_NO": 999, "REV_AT_EPOCH": 89155, "BSTAR": 0.0020881, "MEAN_MOTION_DOT": 0.00023707, "MEAN_MOTION_DDOT": 0}, "tle": {"line1": "1 34486U 97051GB  25358.02197869  .00023707  00000+0  20881-2 0  9991", "line2": "2 34486  86.3926   6.8146 0013923  80.2681 335.5299 14.96285435891550"}}, "geometry": {"type": "Point", "coordinates": [7.0991585403185065, 7.8239704435988315]}}, {"type": "Feature", "properties": {"norad_id": 34487, "name": "IRIDIUM 33 DEB", "group": "iridium-33-debris", "lat": -46.5224019558877, "lon": 3.454059345609484, "alt_km": 772.3874586434922, "timestamp": "2025-12-24T11:33:00.402748+00:00", "meta": {"OBJECT_NAME": "IRIDIUM 33 DEB", "OBJECT_ID": "1997-051GC", "EPOCH": "2025-12-24T00:25:07.191840", "MEAN_MOTION": 14.43230021, "ECCENTRICITY": 0.0033256, "INCLINATION": 86.3429, "RA_OF_ASC_NODE": 7.5212, "ARG_OF_PERICENTER": 93.3155, "MEAN_ANOMALY": 332.1294, "EPHEMERIS_TYPE": 0, "CLASSIFICATION_TYPE": "U", "NORAD_CAT_ID": 34487, "ELEMENT_SET_NO": 999, "REV_AT_EPOCH": 88411, "BSTAR": 0.00017641, "MEAN_MOTION_DOT": 6.17e-06, "MEAN_MOTION_DDOT": 0}, "tle": {"line1": "1 34487U 97051GC  25358.01744435  .00000617  00000+0  17641-3 0  9994", "line2": "2 34487  86.3429   7.5212 0033256  93.3155 332.1294 14.43230021884118"}}, "geometry": {"type": "Point", "coordinates": [3.454059345609484, -46.5224019558877]}}, {"type": "Feature", "properties": {"norad_id": 34488, "name": "IRIDIUM 33 DEB", "group": "iridium-33-debris", "lat": 19.82808593445232, "lon": -58.685370419519884, "alt_km": 462.6056307611161, "timestamp": "2025-12-24T11:33:00.402759+00:00", "meta": {"OBJECT_NAME": "IRIDIUM 33 DEB", "OBJECT_ID": "1997-051GD", "EPOCH": "2025-12-23T07:14:56.478912", "MEAN_MOTION": 15.32002527, "ECCENTRICITY": 0.00097213, "INCLINATION": 86.3275, "RA_OF_ASC_NODE": 300.5735, "ARG_OF_PERICENTER": 36.3388, "MEAN_ANOMALY": 323.852, "EPHEMERIS_TYPE": 0, "CLASSIFICATION_TYPE": "U", "NORAD_CAT_ID": 34488, "ELEMENT_SET_NO": 999, "REV_AT_EPOCH": 89401, "BSTAR": 0.0045068376, "MEAN_MOTION_DOT": 0.00141753, "MEAN_MOTION_DDOT": 0}, "tle": {"line1": "1 34488U 97051GD  25357.30204258  .00141753  00000+0  45068-2 0  9990", "line2": "2 34488  86.3275 300.5735 0009721  36.3388 323.8520 15.32002527894015"}}, "geometry": {"type": "Point", "coordinates": [-58.685370419519884, 19.82808593445232]}}, {"type": "Feature", "properties": {"norad_id": 34492, "name": "IRIDIUM 33 DEB", "group": "iridium-33-debris", "lat": 28.91919294232034, "lon": -28.1653090312778, "alt_km": 937.9565001596111, "timestamp": "2025-12-24T11:33:00.402770+00:00", "meta": {"OBJECT_NAME": "IRIDIUM 33 DEB", "OBJECT_ID": "1997-051GH", "EPOCH": "2025-12-23T09:11:16.550016", "MEAN_MOTION": 14.25905293, "ECCENTRICITY": 0.0188765, "INCLINATION": 86.4718, "RA_OF_ASC_NODE": 330.3252, "ARG_OF_PERICENTER": 203.591, "MEAN_ANOMALY": 310.8385, "EPHEMERIS_TYPE": 0, "CLASSIFICATION_TYPE": "U", "NORAD_CAT_ID": 34492, "ELEMENT_SET_NO": 999, "REV_AT_EPOCH": 85210, "BSTAR": 0.0030137, "MEAN_MOTION_DOT": 8.678e-05, "MEAN_MOTION_DDOT": 0}, "tle": {"line1": "1 34492U 97051GH  25357.38283044  .00008678  00000+0  30137-2 0  9992", "line2": "2 34492  86.4718 330.3252 0188765 203.5910 310.8385 14.25905293852105"}}, "geometry": {"type": "Point", "coordinates": [-28.1653090312778, 28.91919294232034]}}, {"type": "Feature", "properties": {"norad_id": 34497, "name": "IRIDIUM 33 DEB", "group": "iridium-33-debris", "lat": -22.581034792590586, "lon": 45.83364058373817, "alt_km": 760.3021481580554, "timestamp": "2025-12-24T11:33:00.402786+00:00", "meta": {"OBJECT_NAME": "IRIDIUM 33 DEB", "OBJECT_ID": "1997-051GN", "EPOCH": "2025-12-22T21:33:03.136608", "MEAN_MOTION": 14.27482363, "ECCENTRICITY": 0.00780484, "INCLINATION": 86.2769, "RA_OF_ASC_NODE": 48.0617, "ARG_OF_PERICENTER": 306.2683, "MEAN_ANOMALY": 179.2919, "EPHEMERIS_TYPE": 0, "CLASSIFICATION_TYPE": "U", "NORAD_CAT_ID": 34497, "ELEMENT_SET_NO": 999, "REV_AT_EPOCH": 87028, "BSTAR": 0.00056228088, "MEAN_MOTION_DOT": 1.443e-05, "MEAN_MOTION_DDOT": 0}, "tle": {"line1": "1 34497U 97051GN  25356.89795297  .00001443  00000+0  56228-3 0  9993", "line2": "2 34497  86.2769  48.0617 0078048 306.2683 179.2919 14.27482363870281"}}, "geometry": {"type": "Point", "coordinates": [45.83364058373817, -22.581034792590586]}}, {"type": "Feature", "properties": {"norad_id": 34508, "name": "IRIDIUM 33 DEB", "group": "iridium-33-debris", "lat": -59.87169768168168, "lon": -76.05522595154848, "alt_km": 782.5111655630999, "timestamp": "2025-12-24T11:33:00.402805+00:00", "meta": {"OBJECT_NAME": "IRIDIUM 33 DEB", "OBJECT_ID": "1997-051GZ", "EPOCH": "2025-12-23T06:03:45.637920", "MEAN_MOTION": 14.38502292, "ECCENTRICITY": 0.00666476, "INCLINATION": 86.3705, "RA_OF_ASC_NODE": 98.1866, "ARG_OF_PERICENTER": 139.2389, "MEAN_ANOMALY": 221.3824, "EPHEMERIS_TYPE": 0, "CLASSIFICATION_TYPE": "U", "NORAD_CAT_ID": 34508, "ELEMENT_SET_NO": 999, "REV_AT_EPOCH": 87460, "BSTAR": 0.0011996031, "MEAN_MOTION_DOT": 3.78e-05, "MEAN_MOTION_DDOT": 0}, "tle": {"line1": "1 34508U 97051GZ  25357.25261155  .00003780  00000+0  11996-2 0  9996", "line2": "2 34508  86.3705  98.1866 0066647 139.2389 221.3824 14.38502292874606"}}, "geometry": {"type": "Point", "coordinates": [-76.05522595154848, -59.87169768168168]}}, {"type": "Feature", "properties": {"norad_id": 34521, "name": "IRIDIUM 33 DEB", "group": "iridium-33-debris", "lat": 29.605451201541815, "lon": 27.439896726400196, "alt_km": 682.2569042498317, "timestamp": "2025-12-24T11:33:00.402824+00:00", "meta": {"OBJECT_NAME": "IRIDIUM 33 DEB", "OBJECT_ID": "1997-051HN", "EPOCH": "2025-12-24T03:12:35.282880", "MEAN_MOTION": 14.63456562, "ECCENTRICITY": 0.0003031, "INCLINATION": 86.3785, "RA_OF_ASC_NODE": 25.5306, "ARG_OF_PERICENTER": 169.1512, "MEAN_ANOMALY": 190.9765, "EPHEMERIS_TYPE": 0, "CLASSIFICATION_TYPE": "U", "NORAD_CAT_ID": 34521, "ELEMENT_SET_NO": 999, "REV_AT_EPOCH": 88639, "BSTAR": 0.00087021, "MEAN_MOTION_DOT": 4.525e-05, "MEAN_MOTION_DDOT": 0}, "tle": {"line1": "1 34521U 97051HN  25358.13374170  .00004525  00000+0  87021-3 0  9992", "line2": "2 34521  86.3785  25.5306 0003031 169.1512 190.9765 14.63456562886390"}}, "geometry": {"type": "Point", "coordinates": [27.439896726400196, 29.605451201541815]}}, {"type": "Feature", "properties": {"norad_id": 34525, "name": "IRIDIUM 33 DEB", "group": "iridium-33-debris", "lat": 63.52800028006861, "lon": 49.15223158043816, "alt_km": 738.2471130228159, "timestamp": "2025-12-24T11:33:00.402836+00:00", "meta": {"OBJECT_NAME": "IRIDIUM 33 DEB", "OBJECT_ID": "1997-051HS", "EPOCH": "2025-12-24T03:10:54.670080", "MEAN_MOTION": 14.4293133, "ECCENTRICITY": 0.0006291, "INCLINATION": 86.3717, "RA_OF_ASC_NODE": 41.9805, "ARG_OF_PERICENTER": 68.8612, "MEAN_ANOMALY": 344.8819, "EPHEMERIS_TYPE": 0, "CLASSIFICATION_TYPE": "U", "NORAD_CAT_ID": 34525, "ELEMENT_SET_NO": 999, "REV_AT_EPOCH": 88252, "BSTAR": 0.00032438, "MEAN_MOTION_DOT": 1.104e-05, "MEAN_MOTION_DDOT": 0}, "tle": {"line1": "1 34525U 97051HS  25358.13257720  .00001104  00000+0  32438-3 0  9999", "line2": "2 34525  86.3717  41.9805 0006291  68.8612 344.8819 14.42931330882521"}}, "geometry": {"type": "Point", "coordinates": [49.15223158043816, 63.52800028006861]}}]}